[{"OBJECT_NAME":"STARLINK-30400","OBJECT_ID":"2023-148C","EPOCH":"2026-03-09T04:05:01.415328","MEAN_MOTION":15.30192178,"ECCENTRICITY":0.00010965,"INCLINATION":53.1615,"RA_OF_ASC_NODE":26.6044,"ARG_OF_PERICENTER":73.1298,"MEAN_ANOMALY":286.9823,"EPHEMERIS_TYPE":0,"CLASSIFICATION_TYPE":"U","NORAD_CAT_ID":57937,"ELEMENT_SET_NO":999,"REV_AT_EPOCH":13834,"BSTAR":1.991246e-5,"MEAN_MOTION_DOT":2.31e-6,"MEAN_MOTION_DDOT":0},{"OBJECT_NAME":"TRANSPORTER-10 OBJECT AG","OBJECT_ID":"2024-043AG","EPOCH":"2026-03-09T22:12:45.387648","MEAN_MOTION":15.30759727,"ECCENTRICITY":0.00093005,"INCLINATION":97.5471,"RA_OF_ASC_NODE":205.7101,"ARG_OF_PERICENTER":226.5958,"MEAN_ANOMALY":133.4509,"EPHEMERIS_TYPE":0,"CLASSIFICATION_TYPE":"U","NORAD_CAT_ID":59128,"ELEMENT_SET_NO":999,"REV_AT_EPOCH":11192,"BSTAR":0.00032170115,"MEAN_MOTION_DOT":9.498e-5,"MEAN_MOTION_DDOT":0}]
